{
    "links": {
        "self": "http://www.neowsapp.com/rest/v1/neo/54055038?api_key=iIulBulltgU6a56xZRHN4H3l9WmuAYTsLGpBGhQ2"
    },
    "id": "54055038",
    "neo_reference_id": "54055038",
    "name": "(2020 TH1)",
    "designation": "2020 TH1",
    "nasa_jpl_url": "http://ssd.jpl.nasa.gov/sbdb.cgi?sstr=54055038",
    "absolute_magnitude_h": 24.751,
    "estimated_diameter": {
        "kilometers": {
            "estimated_diameter_min": 0.0298095196,
            "estimated_diameter_max": 0.0666561121
        },
        "meters": {
            "estimated_diameter_min": 29.8095195628,
            "estimated_diameter_max": 66.6561121191
        },
        "miles": {
            "estimated_diameter_min": 0.018522771,
            "estimated_diameter_max": 0.041418175
        },
        "feet": {
            "estimated_diameter_min": 97.8002641626,
            "estimated_diameter_max": 218.6880388849
        }
    },
    "is_potentially_hazardous_asteroid": false,
    "close_approach_data": [
        {
            "close_approach_date": "2020-10-11",
            "close_approach_date_full": "2020-Oct-11 12:45",
            "epoch_date_close_approach": 1602420300000,
            "relative_velocity": {
                "kilometers_per_second": "13.617182218",
                "kilometers_per_hour": "49021.8559848889",
                "miles_per_hour": "30460.2749034995"
            },
            "miss_distance": {
                "astronomical": "0.1146168521",
                "lunar": "44.5859554669",
                "kilometers": "17146436.940265027",
                "miles": "10654301.8681382926"
            },
            "orbiting_body": "Earth"
        },
        {
            "close_approach_date": "2021-03-22",
            "close_approach_date_full": "2021-Mar-22 04:41",
            "epoch_date_close_approach": 1616388060000,
            "relative_velocity": {
                "kilometers_per_second": "15.4433525067",
                "kilometers_per_hour": "55596.0690241157",
                "miles_per_hour": "34545.2352222345"
            },
            "miss_distance": {
                "astronomical": "0.3541947499",
                "lunar": "137.7817577111",
                "kilometers": "52986780.150222713",
                "miles": "32924458.4579229194"
            },
            "orbiting_body": "Earth"
        }
    ],
    "orbital_data": {
        "orbit_id": "2",
        "orbit_determination_date": "2020-10-10 07:05:14",
        "first_observation_date": "2020-10-07",
        "last_observation_date": "2020-10-10",
        "data_arc_in_days": 3,
        "observations_used": 31,
        "orbit_uncertainty": "8",
        "minimum_orbit_intersection": ".11417",
        "jupiter_tisserand_invariant": "5.247",
        "epoch_osculation": "2459130.5",
        "eccentricity": ".1146294788024679",
        "semi_major_axis": "1.183421734942365",
        "inclination": "26.24584022692861",
        "ascending_node_longitude": "195.9561095051187",
        "orbital_period": "470.2271912088123",
        "perihelion_distance": "1.047766718262409",
        "perihelion_argument": "245.7703455618919",
        "aphelion_distance": "1.31907675162232",
        "perihelion_time": "2459200.972418329712",
        "mean_anomaly": "306.0472063866032",
        "mean_motion": ".7655873729346629",
        "equinox": "J2000",
        "orbit_class": {
            "orbit_class_type": "AMO",
            "orbit_class_description": "Near-Earth asteroid orbits similar to that of 1221 Amor",
            "orbit_class_range": "1.017 AU < q (perihelion) < 1.3 AU"
        }
    },
    "is_sentry_object": false
}